[{"OBJECT_NAME":"STARLINK-33672","OBJECT_ID":"2025-057V","EPOCH":"2026-03-24T22:43:57.832032","MEAN_MOTION":15.27585152,"ECCENTRICITY":0.00015005,"INCLINATION":42.9999,"RA_OF_ASC_NODE":304.4309,"ARG_OF_PERICENTER":272.4933,"MEAN_ANOMALY":87.5747,"EPHEMERIS_TYPE":0,"CLASSIFICATION_TYPE":"U","NORAD_CAT_ID":63326,"ELEMENT_SET_NO":999,"REV_AT_EPOCH":5811,"BSTAR":0.00080884978,"MEAN_MOTION_DOT":0.00022066,"MEAN_MOTION_DDOT":0},{"OBJECT_NAME":"STARLINK-33625","OBJECT_ID":"2025-057W","EPOCH":"2026-03-24T21:55:24.047328","MEAN_MOTION":15.27593935,"ECCENTRICITY":0.0001235,"INCLINATION":43.0038,"RA_OF_ASC_NODE":297.2704,"ARG_OF_PERICENTER":259.9247,"MEAN_ANOMALY":100.1465,"EPHEMERIS_TYPE":0,"CLASSIFICATION_TYPE":"U","NORAD_CAT_ID":63327,"ELEMENT_SET_NO":999,"REV_AT_EPOCH":5819,"BSTAR":0.00063623458,"MEAN_MOTION_DOT":0.00017294,"MEAN_MOTION_DDOT":0},{"OBJECT_NAME":"STARLINK-33699","OBJECT_ID":"2025-057X","EPOCH":"2026-03-24T21:38:44.365632","MEAN_MOTION":15.27584952,"ECCENTRICITY":0.00018517,"INCLINATION":43.0029,"RA_OF_ASC_NODE":297.1748,"ARG_OF_PERICENTER":277.2654,"MEAN_ANOMALY":82.7987,"EPHEMERIS_TYPE":0,"CLASSIFICATION_TYPE":"U","NORAD_CAT_ID":63328,"ELEMENT_SET_NO":999,"REV_AT_EPOCH":5815,"BSTAR":0.0014067796,"MEAN_MOTION_DOT":0.00038659,"MEAN_MOTION_DDOT":0},{"OBJECT_NAME":"STARLINK-33674","OBJECT_ID":"2025-057Y","EPOCH":"2026-03-24T23:17:17.421792","MEAN_MOTION":15.27568597,"ECCENTRICITY":0.00018167,"INCLINATION":42.9996,"RA_OF_ASC_NODE":304.6193,"ARG_OF_PERICENTER":262.5724,"MEAN_ANOMALY":97.4921,"EPHEMERIS_TYPE":0,"CLASSIFICATION_TYPE":"U","NORAD_CAT_ID":63329,"ELEMENT_SET_NO":999,"REV_AT_EPOCH":5811,"BSTAR":0.00083087735,"MEAN_MOTION_DOT":0.00022664,"MEAN_MOTION_DDOT":0},{"OBJECT_NAME":"STARLINK-32840","OBJECT_ID":"2025-063A","EPOCH":"2026-03-24T23:57:48.994272","MEAN_MOTION":15.30212854,"ECCENTRICITY":8.164e-5,"INCLINATION":53.1575,"RA_OF_ASC_NODE":338.5058,"ARG_OF_PERICENTER":80.6558,"MEAN_ANOMALY":279.4535,"EPHEMERIS_TYPE":0,"CLASSIFICATION_TYPE":"U","NORAD_CAT_ID":63363,"ELEMENT_SET_NO":999,"REV_AT_EPOCH":5712,"BSTAR":0.00065107742,"MEAN_MOTION_DOT":0.00018981,"MEAN_MOTION_DDOT":0},{"OBJECT_NAME":"STARLINK-32543","OBJECT_ID":"2025-063B","EPOCH":"2026-03-24T23:56:16.700064","MEAN_MOTION":15.30233063,"ECCENTRICITY":8.268e-5,"INCLINATION":53.1584,"RA_OF_ASC_NODE":338.4976,"ARG_OF_PERICENTER":94.2052,"MEAN_ANOMALY":265.9043,"EPHEMERIS_TYPE":0,"CLASSIFICATION_TYPE":"U","NORAD_CAT_ID":63364,"ELEMENT_SET_NO":999,"REV_AT_EPOCH":5713,"BSTAR":0.00049233779,"MEAN_MOTION_DOT":0.00014265,"MEAN_MOTION_DDOT":0},{"OBJECT_NAME":"STARLINK-33741","OBJECT_ID":"2025-063C","EPOCH":"2026-03-24T22:55:04.168704","MEAN_MOTION":15.3021608,"ECCENTRICITY":0.00023092,"INCLINATION":53.1589,"RA_OF_ASC_NODE":341.7728,"ARG_OF_PERICENTER":153.234,"MEAN_ANOMALY":206.878,"EPHEMERIS_TYPE":0,"CLASSIFICATION_TYPE":"U","NORAD_CAT_ID":63365,"ELEMENT_SET_NO":999,"REV_AT_EPOCH":5709,"BSTAR":0.0006997584,"MEAN_MOTION_DOT":0.00020433,"MEAN_MOTION_DDOT":0},{"OBJECT_NAME":"STARLINK-33742","OBJECT_ID":"2025-063D","EPOCH":"2026-03-24T22:07:57.650592","MEAN_MOTION":15.30194994,"ECCENTRICITY":0.00016495,"INCLINATION":53.1606,"RA_OF_ASC_NODE":341.5687,"ARG_OF_PERICENTER":123.7214,"MEAN_ANOMALY":236.3945,"EPHEMERIS_TYPE":0,"CLASSIFICATION_TYPE":"U","NORAD_CAT_ID":63366,"ELEMENT_SET_NO":999,"REV_AT_EPOCH":5704,"BSTAR":0.00059534533,"MEAN_MOTION_DOT":0.00017312,"MEAN_MOTION_DDOT":0},{"OBJECT_NAME":"STARLINK-33734","OBJECT_ID":"2025-063E","EPOCH":"2026-03-24T22:33:39.939840","MEAN_MOTION":15.30208884,"ECCENTRICITY":6.752e-5,"INCLINATION":53.1625,"RA_OF_ASC_NODE":351.5996,"ARG_OF_PERICENTER":136.9898,"MEAN_ANOMALY":223.1156,"EPHEMERIS_TYPE":0,"CLASSIFICATION_TYPE":"U","NORAD_CAT_ID":63367,"ELEMENT_SET_NO":999,"REV_AT_EPOCH":5690,"BSTAR":0.00075068889,"MEAN_MOTION_DOT":0.00021946,"MEAN_MOTION_DDOT":0},{"OBJECT_NAME":"STARLINK-33578","OBJECT_ID":"2025-063F","EPOCH":"2026-03-24T23:07:49.655424","MEAN_MOTION":15.30204286,"ECCENTRICITY":0.00011771,"INCLINATION":53.1613,"RA_OF_ASC_NODE":338.9889,"ARG_OF_PERICENTER":54.353,"MEAN_ANOMALY":305.758,"EPHEMERIS_TYPE":0,"CLASSIFICATION_TYPE":"U","NORAD_CAT_ID":63368,"ELEMENT_SET_NO":999,"REV_AT_EPOCH":5707,"BSTAR":0.00037417328,"MEAN_MOTION_DOT":0.0001074,"MEAN_MOTION_DDOT":0},{"OBJECT_NAME":"STARLINK-33626","OBJECT_ID":"2025-063G","EPOCH":"2026-03-24T23:26:05.105472","MEAN_MOTION":15.30209766,"ECCENTRICITY":0.00012007,"INCLINATION":53.1605,"RA_OF_ASC_NODE":339.0629,"ARG_OF_PERICENTER":79.6834,"MEAN_ANOMALY":280.4303,"EPHEMERIS_TYPE":0,"CLASSIFICATION_TYPE":"U","NORAD_CAT_ID":63369,"ELEMENT_SET_NO":999,"REV_AT_EPOCH":5708,"BSTAR":0.0010678843,"MEAN_MOTION_DOT":0.00031412,"MEAN_MOTION_DDOT":0},{"OBJECT_NAME":"STARLINK-33657","OBJECT_ID":"2025-063H","EPOCH":"2026-03-24T22:36:49.659552","MEAN_MOTION":15.30154739,"ECCENTRICITY":0.00012571,"INCLINATION":53.157,"RA_OF_ASC_NODE":341.6967,"ARG_OF_PERICENTER":104.7579,"MEAN_ANOMALY":255.3561,"EPHEMERIS_TYPE":0,"CLASSIFICATION_TYPE":"U","NORAD_CAT_ID":63370,"ELEMENT_SET_NO":999,"REV_AT_EPOCH":5704,"BSTAR":0.00048076942,"MEAN_MOTION_DOT":0.00013887,"MEAN_MOTION_DDOT":0},{"OBJECT_NAME":"STARLINK-33648","OBJECT_ID":"2025-063J","EPOCH":"2026-03-24T22:50:31.037568","MEAN_MOTION":15.30210771,"ECCENTRICITY":8.58e-5,"INCLINATION":53.1584,"RA_OF_ASC_NODE":341.7536,"ARG_OF_PERICENTER":106.7156,"MEAN_ANOMALY":253.3939,"EPHEMERIS_TYPE":0,"CLASSIFICATION_TYPE":"U","NORAD_CAT_ID":63371,"ELEMENT_SET_NO":999,"REV_AT_EPOCH":5709,"BSTAR":0.00060284614,"MEAN_MOTION_DOT":0.00017544,"MEAN_MOTION_DDOT":0},{"OBJECT_NAME":"STARLINK-33614","OBJECT_ID":"2025-063K","EPOCH":"2026-03-24T23:04:47.370432","MEAN_MOTION":15.30204784,"ECCENTRICITY":0.00011194,"INCLINATION":53.1614,"RA_OF_ASC_NODE":338.9706,"ARG_OF_PERICENTER":97.2676,"MEAN_ANOMALY":262.8453,"EPHEMERIS_TYPE":0,"CLASSIFICATION_TYPE":"U","NORAD_CAT_ID":63372,"ELEMENT_SET_NO":999,"REV_AT_EPOCH":5713,"BSTAR":0.00022177364,"MEAN_MOTION_DOT":6.216e-5,"MEAN_MOTION_DDOT":0},{"OBJECT_NAME":"STARLINK-33617","OBJECT_ID":"2025-063L","EPOCH":"2026-03-24T16:42:29.745504","MEAN_MOTION":15.30216598,"ECCENTRICITY":0.000109,"INCLINATION":53.16,"RA_OF_ASC_NODE":340.1551,"ARG_OF_PERICENTER":100.9661,"MEAN_ANOMALY":259.1462,"EPHEMERIS_TYPE":0,"CLASSIFICATION_TYPE":"U","NORAD_CAT_ID":63373,"ELEMENT_SET_NO":999,"REV_AT_EPOCH":5704,"BSTAR":0.00091063024,"MEAN_MOTION_DOT":0.00026722,"MEAN_MOTION_DDOT":0},{"OBJECT_NAME":"STARLINK-33618","OBJECT_ID":"2025-063M","EPOCH":"2026-03-24T21:20:05.773344","MEAN_MOTION":15.30217844,"ECCENTRICITY":0.00011628,"INCLINATION":53.1595,"RA_OF_ASC_NODE":339.2274,"ARG_OF_PERICENTER":35.9542,"MEAN_ANOMALY":324.1537,"EPHEMERIS_TYPE":0,"CLASSIFICATION_TYPE":"U","NORAD_CAT_ID":63374,"ELEMENT_SET_NO":999,"REV_AT_EPOCH":5712,"BSTAR":0.00075368057,"MEAN_MOTION_DOT":0.00022041,"MEAN_MOTION_DDOT":0}]
