STARLINK-33672          
1 63326U 25057V   26083.94719713  .00022066  00000+0  80885-3 0  9996
2 63326  42.9999 304.4309 0001500 272.4933  87.5747 15.27585152 58117
STARLINK-33625          
1 63327U 25057W   26083.91347277  .00017294  00000+0  63623-3 0  9994
2 63327  43.0038 297.2704 0001235 259.9247 100.1465 15.27593935 58190
STARLINK-33699          
1 63328U 25057X   26083.90190238  .00038659  00000+0  14068-2 0  9993
2 63328  43.0029 297.1748 0001851 277.2654  82.7987 15.27584952 58156
STARLINK-33674          
1 63329U 25057Y   26083.97034053  .00022664  00000+0  83088-3 0  9991
2 63329  42.9996 304.6193 0001816 262.5724  97.4921 15.27568597 58116
STARLINK-32840          
1 63363U 25063A   26083.99848373  .00018981  00000+0  65108-3 0  9996
2 63363  53.1575 338.5058 0000816  80.6558 279.4535 15.30212854 57129
STARLINK-32543          
1 63364U 25063B   26083.99741551  .00014265  00000+0  49234-3 0  9990
2 63364  53.1584 338.4976 0000826  94.2052 265.9043 15.30233063 57139
STARLINK-33741          
1 63365U 25063C   26083.95490936  .00020433  00000+0  69976-3 0  9994
2 63365  53.1589 341.7728 0002309 153.2340 206.8780 15.30216080 57098
STARLINK-33742          
1 63366U 25063D   26083.92219503  .00017312  00000+0  59535-3 0  9993
2 63366  53.1606 341.5687 0001649 123.7214 236.3945 15.30194994 57044
STARLINK-33734          
1 63367U 25063E   26083.94004560  .00021946  00000+0  75069-3 0  9999
2 63367  53.1625 351.5996 0000675 136.9898 223.1156 15.30208884 56908
STARLINK-33578          
1 63368U 25063F   26083.96376916  .00010740  00000+0  37417-3 0  9994
2 63368  53.1613 338.9889 0001177  54.3530 305.7580 15.30204286 57079
STARLINK-33626          
1 63369U 25063G   26083.97644798  .00031412  00000+0  10679-2 0  9991
2 63369  53.1605 339.0629 0001200  79.6834 280.4303 15.30209766 57080
STARLINK-33657          
1 63370U 25063H   26083.94224143  .00013887  00000+0  48077-3 0  9998
2 63370  53.1570 341.6967 0001257 104.7579 255.3561 15.30154739 57047
STARLINK-33648          
1 63371U 25063J   26083.95174812  .00017544  00000+0  60285-3 0  9996
2 63371  53.1584 341.7536 0000858 106.7156 253.3939 15.30210771 57096
STARLINK-33614          
1 63372U 25063K   26083.96165938  .00006216  00000+0  22177-3 0  9999
2 63372  53.1614 338.9706 0001119  97.2676 262.8453 15.30204784 57138
STARLINK-33617          
1 63373U 25063L   26083.69617761  .00026722  00000+0  91063-3 0  9990
2 63373  53.1600 340.1551 0001090 100.9661 259.1462 15.30216598 57046
STARLINK-33618          
1 63374U 25063M   26083.88895571  .00022041  00000+0  75368-3 0  9999
2 63374  53.1595 339.2274 0001162  35.9542 324.1537 15.30217844 57126
